STARLINK-5156           
1 53973U 22125K   26068.68847022 -.00000367  00000+0 -49514-5 0  9993
2 53973  53.2165 224.0063 0001122  83.5147 276.5973 15.08832105189327
CHAMRAN-1               
1 61072U 24165B   26068.91010681  .00007263  00000+0  44320-3 0  9995
2 61072  64.0789   8.4365 0045019 310.8781  48.8437 15.10235792 81665
